[{"OBJECT_NAME":"QIANFAN-1","OBJECT_ID":"2024-140A","EPOCH":"2026-03-05T06:34:20.272800","MEAN_MOTION":13.50999486,"ECCENTRICITY":0.00171282,"INCLINATION":88.9717,"RA_OF_ASC_NODE":290.7442,"ARG_OF_PERICENTER":342.5173,"MEAN_ANOMALY":17.5386,"EPHEMERIS_TYPE":0,"CLASSIFICATION_TYPE":"U","NORAD_CAT_ID":60379,"ELEMENT_SET_NO":999,"REV_AT_EPOCH":7849,"BSTAR":0.00014531746,"MEAN_MOTION_DOT":1.06e-6,"MEAN_MOTION_DDOT":0},{"OBJECT_NAME":"QIANFAN-2","OBJECT_ID":"2024-140B","EPOCH":"2026-03-05T05:29:03.238080","MEAN_MOTION":13.5100361,"ECCENTRICITY":0.00116326,"INCLINATION":88.9703,"RA_OF_ASC_NODE":290.5767,"ARG_OF_PERICENTER":315.6646,"MEAN_ANOMALY":44.3573,"EPHEMERIS_TYPE":0,"CLASSIFICATION_TYPE":"U","NORAD_CAT_ID":60380,"ELEMENT_SET_NO":999,"REV_AT_EPOCH":7854,"BSTAR":0.00014636538,"MEAN_MOTION_DOT":1.06e-6,"MEAN_MOTION_DDOT":0},{"OBJECT_NAME":"QIANFAN-3","OBJECT_ID":"2024-140C","EPOCH":"2026-03-05T05:40:48.208512","MEAN_MOTION":13.50999588,"ECCENTRICITY":0.00131194,"INCLINATION":88.9696,"RA_OF_ASC_NODE":290.7023,"ARG_OF_PERICENTER":328.5213,"MEAN_ANOMALY":31.5151,"EPHEMERIS_TYPE":0,"CLASSIFICATION_TYPE":"U","NORAD_CAT_ID":60381,"ELEMENT_SET_NO":999,"REV_AT_EPOCH":7845,"BSTAR":0.00016145921,"MEAN_MOTION_DOT":1.16e-6,"MEAN_MOTION_DDOT":0},{"OBJECT_NAME":"QIANFAN-4","OBJECT_ID":"2024-140D","EPOCH":"2026-03-05T06:52:03.347904","MEAN_MOTION":13.50999958,"ECCENTRICITY":0.00119387,"INCLINATION":88.972,"RA_OF_ASC_NODE":290.6156,"ARG_OF_PERICENTER":318.2487,"MEAN_ANOMALY":41.7752,"EPHEMERIS_TYPE":0,"CLASSIFICATION_TYPE":"U","NORAD_CAT_ID":60382,"ELEMENT_SET_NO":999,"REV_AT_EPOCH":7858,"BSTAR":0.0001711315,"MEAN_MOTION_DOT":1.22e-6,"MEAN_MOTION_DDOT":0},{"OBJECT_NAME":"QIANFAN-5","OBJECT_ID":"2024-140E","EPOCH":"2026-03-05T06:16:32.511360","MEAN_MOTION":13.51001937,"ECCENTRICITY":0.00147092,"INCLINATION":88.9695,"RA_OF_ASC_NODE":290.725,"ARG_OF_PERICENTER":339.5037,"MEAN_ANOMALY":20.5523,"EPHEMERIS_TYPE":0,"CLASSIFICATION_TYPE":"U","NORAD_CAT_ID":60383,"ELEMENT_SET_NO":999,"REV_AT_EPOCH":7844,"BSTAR":0.00015850001,"MEAN_MOTION_DOT":1.14e-6,"MEAN_MOTION_DDOT":0},{"OBJECT_NAME":"QIANFAN-6","OBJECT_ID":"2024-140F","EPOCH":"2026-03-05T06:46:10.369344","MEAN_MOTION":13.5100173,"ECCENTRICITY":0.00122013,"INCLINATION":88.9722,"RA_OF_ASC_NODE":290.4912,"ARG_OF_PERICENTER":324.5287,"MEAN_ANOMALY":35.5052,"EPHEMERIS_TYPE":0,"CLASSIFICATION_TYPE":"U","NORAD_CAT_ID":60384,"ELEMENT_SET_NO":999,"REV_AT_EPOCH":7864,"BSTAR":0.00016855507,"MEAN_MOTION_DOT":1.21e-6,"MEAN_MOTION_DDOT":0},{"OBJECT_NAME":"QIANFAN-7","OBJECT_ID":"2024-140G","EPOCH":"2026-03-05T07:21:40.963104","MEAN_MOTION":14.27772168,"ECCENTRICITY":0.00165862,"INCLINATION":88.9734,"RA_OF_ASC_NODE":284.0259,"ARG_OF_PERICENTER":124.0779,"MEAN_ANOMALY":236.1992,"EPHEMERIS_TYPE":0,"CLASSIFICATION_TYPE":"U","NORAD_CAT_ID":60385,"ELEMENT_SET_NO":999,"REV_AT_EPOCH":8217,"BSTAR":0.00016026851,"MEAN_MOTION_DOT":4.11e-6,"MEAN_MOTION_DDOT":0},{"OBJECT_NAME":"QIANFAN-8","OBJECT_ID":"2024-140H","EPOCH":"2026-03-05T06:58:00.468480","MEAN_MOTION":13.51003243,"ECCENTRICITY":0.00157064,"INCLINATION":88.9724,"RA_OF_ASC_NODE":290.7291,"ARG_OF_PERICENTER":325.2944,"MEAN_ANOMALY":34.7181,"EPHEMERIS_TYPE":0,"CLASSIFICATION_TYPE":"U","NORAD_CAT_ID":60386,"ELEMENT_SET_NO":999,"REV_AT_EPOCH":7849,"BSTAR":0.00016555837,"MEAN_MOTION_DOT":1.19e-6,"MEAN_MOTION_DDOT":0},{"OBJECT_NAME":"QIANFAN-9","OBJECT_ID":"2024-140J","EPOCH":"2026-03-05T06:22:26.843808","MEAN_MOTION":13.50998006,"ECCENTRICITY":0.00154016,"INCLINATION":88.9722,"RA_OF_ASC_NODE":290.8054,"ARG_OF_PERICENTER":325.1841,"MEAN_ANOMALY":34.8301,"EPHEMERIS_TYPE":0,"CLASSIFICATION_TYPE":"U","NORAD_CAT_ID":60387,"ELEMENT_SET_NO":999,"REV_AT_EPOCH":7847,"BSTAR":0.00015124497,"MEAN_MOTION_DOT":1.1e-6,"MEAN_MOTION_DDOT":0},{"OBJECT_NAME":"QIANFAN-10","OBJECT_ID":"2024-140K","EPOCH":"2026-03-05T06:28:12.174240","MEAN_MOTION":13.50996416,"ECCENTRICITY":0.00132859,"INCLINATION":88.9731,"RA_OF_ASC_NODE":290.1601,"ARG_OF_PERICENTER":301.3057,"MEAN_ANOMALY":58.6793,"EPHEMERIS_TYPE":0,"CLASSIFICATION_TYPE":"U","NORAD_CAT_ID":60388,"ELEMENT_SET_NO":999,"REV_AT_EPOCH":7860,"BSTAR":0.00015073039,"MEAN_MOTION_DOT":1.09e-6,"MEAN_MOTION_DDOT":0},{"OBJECT_NAME":"QIANFAN-11","OBJECT_ID":"2024-140L","EPOCH":"2026-03-05T05:35:05.180640","MEAN_MOTION":13.5100324,"ECCENTRICITY":0.00134273,"INCLINATION":88.9657,"RA_OF_ASC_NODE":290.6897,"ARG_OF_PERICENTER":325.8571,"MEAN_ANOMALY":34.1716,"EPHEMERIS_TYPE":0,"CLASSIFICATION_TYPE":"U","NORAD_CAT_ID":60389,"ELEMENT_SET_NO":999,"REV_AT_EPOCH":7825,"BSTAR":0.00015435798,"MEAN_MOTION_DOT":1.12e-6,"MEAN_MOTION_DDOT":0},{"OBJECT_NAME":"QIANFAN-12","OBJECT_ID":"2024-140M","EPOCH":"2026-03-05T06:04:42.959136","MEAN_MOTION":13.51000936,"ECCENTRICITY":0.00124995,"INCLINATION":88.97,"RA_OF_ASC_NODE":290.7669,"ARG_OF_PERICENTER":335.0287,"MEAN_ANOMALY":25.0258,"EPHEMERIS_TYPE":0,"CLASSIFICATION_TYPE":"U","NORAD_CAT_ID":60390,"ELEMENT_SET_NO":999,"REV_AT_EPOCH":7838,"BSTAR":0.00016457757,"MEAN_MOTION_DOT":1.18e-6,"MEAN_MOTION_DDOT":0},{"OBJECT_NAME":"QIANFAN-13","OBJECT_ID":"2024-140N","EPOCH":"2026-03-05T05:23:12.150816","MEAN_MOTION":13.51001365,"ECCENTRICITY":0.00124128,"INCLINATION":88.9713,"RA_OF_ASC_NODE":290.8799,"ARG_OF_PERICENTER":338.0075,"MEAN_ANOMALY":22.0542,"EPHEMERIS_TYPE":0,"CLASSIFICATION_TYPE":"U","NORAD_CAT_ID":60391,"ELEMENT_SET_NO":999,"REV_AT_EPOCH":7840,"BSTAR":0.00015016738,"MEAN_MOTION_DOT":1.09e-6,"MEAN_MOTION_DDOT":0},{"OBJECT_NAME":"QIANFAN-14","OBJECT_ID":"2024-140P","EPOCH":"2026-03-05T05:58:39.234144","MEAN_MOTION":13.51001196,"ECCENTRICITY":0.00160682,"INCLINATION":88.9691,"RA_OF_ASC_NODE":290.7574,"ARG_OF_PERICENTER":336.0114,"MEAN_ANOMALY":24.0287,"EPHEMERIS_TYPE":0,"CLASSIFICATION_TYPE":"U","NORAD_CAT_ID":60392,"ELEMENT_SET_NO":999,"REV_AT_EPOCH":7841,"BSTAR":0.00016264383,"MEAN_MOTION_DOT":1.17e-6,"MEAN_MOTION_DDOT":0},{"OBJECT_NAME":"QIANFAN-15","OBJECT_ID":"2024-140Q","EPOCH":"2026-03-05T06:10:42.753792","MEAN_MOTION":13.50999054,"ECCENTRICITY":0.00114694,"INCLINATION":88.9715,"RA_OF_ASC_NODE":290.7326,"ARG_OF_PERICENTER":323.6466,"MEAN_ANOMALY":36.3905,"EPHEMERIS_TYPE":0,"CLASSIFICATION_TYPE":"U","NORAD_CAT_ID":60393,"ELEMENT_SET_NO":999,"REV_AT_EPOCH":7840,"BSTAR":0.00014080804,"MEAN_MOTION_DOT":1.03e-6,"MEAN_MOTION_DDOT":0},{"OBJECT_NAME":"QIANFAN-16","OBJECT_ID":"2024-140R","EPOCH":"2026-03-05T05:52:42.409056","MEAN_MOTION":13.50997685,"ECCENTRICITY":0.00141343,"INCLINATION":88.9718,"RA_OF_ASC_NODE":290.8565,"ARG_OF_PERICENTER":340.9873,"MEAN_ANOMALY":19.0749,"EPHEMERIS_TYPE":0,"CLASSIFICATION_TYPE":"U","NORAD_CAT_ID":60394,"ELEMENT_SET_NO":999,"REV_AT_EPOCH":7831,"BSTAR":0.00016857266,"MEAN_MOTION_DOT":1.21e-6,"MEAN_MOTION_DDOT":0},{"OBJECT_NAME":"QIANFAN-17","OBJECT_ID":"2024-140S","EPOCH":"2026-03-05T05:46:56.393472","MEAN_MOTION":13.5100437,"ECCENTRICITY":0.00143279,"INCLINATION":88.9729,"RA_OF_ASC_NODE":290.9119,"ARG_OF_PERICENTER":334.277,"MEAN_ANOMALY":25.7667,"EPHEMERIS_TYPE":0,"CLASSIFICATION_TYPE":"U","NORAD_CAT_ID":60395,"ELEMENT_SET_NO":999,"REV_AT_EPOCH":7927,"BSTAR":0.00014389539,"MEAN_MOTION_DOT":1.05e-6,"MEAN_MOTION_DDOT":0}]
