QIANFAN-1               
1 60379U 24140A   26064.27384575  .00000106  00000+0  14532-3 0  9999
2 60379  88.9717 290.7442 0017128 342.5173  17.5386 13.50999486 78491
QIANFAN-2               
1 60380U 24140B   26064.22850970  .00000106  00000+0  14637-3 0  9999
2 60380  88.9703 290.5767 0011632 315.6646  44.3573 13.51003610 78544
QIANFAN-3               
1 60381U 24140C   26064.23666908  .00000116  00000+0  16146-3 0  9995
2 60381  88.9696 290.7023 0013119 328.5213  31.5151 13.50999588 78455
QIANFAN-4               
1 60382U 24140D   26064.28614986  .00000122  00000+0  17113-3 0  9992
2 60382  88.9720 290.6156 0011938 318.2487  41.7752 13.50999958 78581
QIANFAN-5               
1 60383U 24140E   26064.26148740  .00000114  00000+0  15850-3 0  9998
2 60383  88.9695 290.7250 0014709 339.5037  20.5523 13.51001937 78443
QIANFAN-6               
1 60384U 24140F   26064.28206446  .00000121  00000+0  16856-3 0  9994
2 60384  88.9722 290.4912 0012201 324.5287  35.5052 13.51001730 78649
QIANFAN-7               
1 60385U 24140G   26064.30672411  .00000411  00000+0  16027-3 0  9999
2 60385  88.9734 284.0259 0016586 124.0779 236.1992 14.27772168 82174
QIANFAN-8               
1 60386U 24140H   26064.29028320  .00000119  00000+0  16556-3 0  9994
2 60386  88.9724 290.7291 0015706 325.2944  34.7181 13.51003243 78495
QIANFAN-9               
1 60387U 24140J   26064.26558847  .00000110  00000+0  15124-3 0  9995
2 60387  88.9722 290.8054 0015401 325.1841  34.8301 13.50998006 78471
QIANFAN-10              
1 60388U 24140K   26064.26958535  .00000109  00000+0  15073-3 0  9995
2 60388  88.9731 290.1601 0013285 301.3057  58.6793 13.50996416 78603
QIANFAN-11              
1 60389U 24140L   26064.23269885  .00000112  00000+0  15436-3 0  9993
2 60389  88.9657 290.6897 0013427 325.8571  34.1716 13.51003240 78253
QIANFAN-12              
1 60390U 24140M   26064.25327499  .00000118  00000+0  16458-3 0  9994
2 60390  88.9700 290.7669 0012499 335.0287  25.0258 13.51000936 78380
QIANFAN-13              
1 60391U 24140N   26064.22444619  .00000109  00000+0  15017-3 0  9996
2 60391  88.9713 290.8799 0012412 338.0075  22.0542 13.51001365 78406
QIANFAN-14              
1 60392U 24140P   26064.24906521  .00000117  00000+0  16264-3 0  9998
2 60392  88.9691 290.7574 0016068 336.0114  24.0287 13.51001196 78416
QIANFAN-15              
1 60393U 24140Q   26064.25743928  .00000103  00000+0  14081-3 0  9990
2 60393  88.9715 290.7326 0011469 323.6466  36.3905 13.50999054 78401
QIANFAN-16              
1 60394U 24140R   26064.24493529  .00000121  00000+0  16857-3 0  9992
2 60394  88.9718 290.8565 0014134 340.9873  19.0749 13.50997685 78319
QIANFAN-17              
1 60395U 24140S   26064.24093048  .00000105  00000+0  14390-3 0  9997
2 60395  88.9729 290.9119 0014327 334.2770  25.7667 13.51004370 79274
